OBJECT_NAME,OBJECT_ID,EPOCH,MEAN_MOTION,ECCENTRICITY,INCLINATION,RA_OF_ASC_NODE,ARG_OF_PERICENTER,MEAN_ANOMALY,EPHEMERIS_TYPE,CLASSIFICATION_TYPE,NORAD_CAT_ID,ELEMENT_SET_NO,REV_AT_EPOCH,BSTAR,MEAN_MOTION_DOT,MEAN_MOTION_DDOT
TIANMU-1 20,2023-208B,2026-06-19T22:27:50.735232,15.32798765,.00058066,97.4449,287.8880,322.4030,37.6805,0,U,58661,999,13784,.2157535E-3,.6757E-4,0
TIANMU-1 21,2023-208C,2026-06-19T22:05:05.690400,15.35117120,.00058251,97.4509,290.5645,311.8405,48.2341,0,U,58662,999,13798,.22957104E-3,.7745E-4,0
TIANMU-1 22,2023-208D,2026-06-19T22:45:40.547808,15.31089844,.00029423,97.4504,287.1961,353.6123,6.5080,0,U,58663,999,13775,.20678421E-3,.6132E-4,0
TIANMU-1 15,2024-004A,2026-06-19T21:59:33.010656,15.27046188,.0006411,97.4671,357.1069,352.4861,7.6280,0,U,58700,999,13619,.16950742E-3,.4425E-4,0
TIANMU-1 16,2024-004B,2026-06-19T23:19:08.170176,15.26772149,.00055293,97.4619,356.3958,357.9939,2.1277,0,U,58701,999,13620,.17496165E-3,.4531E-4,0
TIANMU-1 17,2024-004C,2026-06-19T22:58:11.504640,15.26771225,.00052454,97.4647,356.8673,5.0072,355.1218,0,U,58702,999,13619,.17470201E-3,.4524E-4,0
TIANMU-1 18,2024-004D,2026-06-19T22:23:31.382304,15.27028113,.00037527,97.4664,357.1005,6.4421,353.6865,0,U,58703,999,13619,.17218262E-3,.4492E-4,0
INSAT-3DS,2024-033A,2026-06-19T18:23:54.876768,1.00271097,.00011361,0.0468,106.6851,330.0315,189.3438,0,U,58990,999,4709,0,-.162E-5,0
METEOR-M2 4,2024-039A,2026-06-19T22:14:33.169056,14.22429787,.00074408,98.7011,130.1904,153.4437,206.7124,0,U,59051,999,11965,.22196525E-4,.6E-7,0
GOES 19,2024-119A,2026-06-19T21:04:23.392128,1.00271223,.00004183,0.0212,176.6459,353.0288,339.3237,0,U,60133,999,699,0,-.254E-5,0
MTG-S1,2025-143A,2026-06-19T20:28:38.572608,1.00399499,.00008531,0.6006,339.6139,293.0042,299.8767,0,U,64723,999,344,0,-.8E-7,0
METOP-SGA1,2025-172A,2026-06-16T03:40:47.624736,14.21509720,.0000902,98.6644,226.8998,93.8213,266.3067,0,U,65159,999,4364,.41999845E-4,.49E-6,0
FENGYUN 3H,2025-219A,2026-06-19T18:56:30.260832,14.19920764,.00015842,98.6767,111.5078,75.1174,285.0178,0,U,65815,999,3775,.35613238E-4,.32E-6,0
