TIANMU-1 20             
1 58661U 23208B   26170.93600388  .00006757  00000+0  21575-3 0  9991
2 58661  97.4449 287.8880 0005806 322.4030  37.6805 15.32798765137844
TIANMU-1 21             
1 58662U 23208C   26170.92020475  .00007745  00000+0  22957-3 0  9997
2 58662  97.4509 290.5645 0005825 311.8405  48.2341 15.35117120137982
TIANMU-1 22             
1 58663U 23208D   26170.94838597  .00006132  00000+0  20678-3 0  9999
2 58663  97.4504 287.1961 0002942 353.6123   6.5080 15.31089844137758
TIANMU-1 15             
1 58700U 24004A   26170.91635429  .00004425  00000+0  16951-3 0  9994
2 58700  97.4671 357.1069 0006411 352.4861   7.6280 15.27046188136193
TIANMU-1 16             
1 58701U 24004B   26170.97162234  .00004531  00000+0  17496-3 0  9993
2 58701  97.4619 356.3958 0005529 357.9939   2.1277 15.26772149136209
TIANMU-1 17             
1 58702U 24004C   26170.95707760  .00004524  00000+0  17470-3 0  9995
2 58702  97.4647 356.8673 0005245   5.0072 355.1218 15.26771225136192
TIANMU-1 18             
1 58703U 24004D   26170.93300211  .00004492  00000+0  17218-3 0  9998
2 58703  97.4664 357.1005 0003752   6.4421 353.6865 15.27028113136192
INSAT-3DS               
1 58990U 24033A   26170.76660737 -.00000162  00000+0  00000+0 0  9999
2 58990   0.0468 106.6851 0001136 330.0315 189.3438  1.00271097 47097
METEOR-M2 4             
1 59051U 24039A   26170.92677279  .00000006  00000+0  22197-4 0  9993
2 59051  98.7011 130.1904 0007440 153.4437 206.7124 14.22429787119658
GOES 19                 
1 60133U 24119A   26170.87804852 -.00000254  00000+0  00000+0 0  9998
2 60133   0.0212 176.6459 0000418 353.0288 339.3237  1.00271223  6992
MTG-S1                  
1 64723U 25143A   26170.85322422 -.00000008  00000+0  00000+0 0  9998
2 64723   0.6006 339.6139 0000853 293.0042 299.8767  1.00399499  3449
METOP-SGA1              
1 65159U 25172A   26167.15332899  .00000049  00000+0  42000-4 0  9997
2 65159  98.6644 226.8998 0000902  93.8213 266.3067 14.21509720 43644
FENGYUN 3H              
1 65815U 25219A   26170.78923913  .00000032  00000+0  35613-4 0  9998
2 65815  98.6767 111.5078 0001584  75.1174 285.0178 14.19920764 37752
